CCSDS_OMM_VERS = 2.0
CREATION_DATE  = 
ORIGINATOR     = 

OBJECT_NAME    = STARLINK-35762
OBJECT_ID      = 2025-303K
CENTER_NAME    = EARTH
REF_FRAME      = TEME
TIME_SYSTEM    = UTC
MEAN_ELEMENT_THEORY = SGP/SGP4

EPOCH          = 2026-01-16T06:00:00.999648
MEAN_MOTION    = 15.40692832
ECCENTRICITY   = .00016653
INCLINATION    = 42.9989
RA_OF_ASC_NODE = 250.3245
ARG_OF_PERICENTER = 261.9014
MEAN_ANOMALY   = 158.6457

EPHEMERIS_TYPE = 0
CLASSIFICATION_TYPE = U
NORAD_CAT_ID   = 67172
ELEMENT_SET_NO = 999
REV_AT_EPOCH   = 572
BSTAR          = .38652593E-3
MEAN_MOTION_DOT = .15872E-3
MEAN_MOTION_DDOT = 0

CCSDS_OMM_VERS = 2.0
CREATION_DATE  = 
ORIGINATOR     = 

OBJECT_NAME    = STARLINK-36183
OBJECT_ID      = 2025-303L
CENTER_NAME    = EARTH
REF_FRAME      = TEME
TIME_SYSTEM    = UTC
MEAN_ELEMENT_THEORY = SGP/SGP4

EPOCH          = 2026-01-16T06:00:00.999648
MEAN_MOTION    = 15.40694684
ECCENTRICITY   = .00017238
INCLINATION    = 42.9990
RA_OF_ASC_NODE = 250.2639
ARG_OF_PERICENTER = 265.6944
MEAN_ANOMALY   = 179.7288

EPHEMERIS_TYPE = 0
CLASSIFICATION_TYPE = U
NORAD_CAT_ID   = 67173
ELEMENT_SET_NO = 999
REV_AT_EPOCH   = 601
BSTAR          = .37287658E-3
MEAN_MOTION_DOT = .15301E-3
MEAN_MOTION_DDOT = 0

CCSDS_OMM_VERS = 2.0
CREATION_DATE  = 
ORIGINATOR     = 

OBJECT_NAME    = STARLINK-36210
OBJECT_ID      = 2025-303M
CENTER_NAME    = EARTH
REF_FRAME      = TEME
TIME_SYSTEM    = UTC
MEAN_ELEMENT_THEORY = SGP/SGP4

EPOCH          = 2026-01-16T06:00:00.999648
MEAN_MOTION    = 15.40667739
ECCENTRICITY   = .00016094
INCLINATION    = 42.9992
RA_OF_ASC_NODE = 250.2335
ARG_OF_PERICENTER = 275.8052
MEAN_ANOMALY   = 182.0145

EPHEMERIS_TYPE = 0
CLASSIFICATION_TYPE = U
NORAD_CAT_ID   = 67174
ELEMENT_SET_NO = 999
REV_AT_EPOCH   = 601
BSTAR          = .32625491E-3
MEAN_MOTION_DOT = .13334E-3
MEAN_MOTION_DDOT = 0

CCSDS_OMM_VERS = 2.0
CREATION_DATE  = 
ORIGINATOR     = 

OBJECT_NAME    = STARLINK-35756
OBJECT_ID      = 2025-303N
CENTER_NAME    = EARTH
REF_FRAME      = TEME
TIME_SYSTEM    = UTC
MEAN_ELEMENT_THEORY = SGP/SGP4

EPOCH          = 2026-01-16T06:00:00.999648
MEAN_MOTION    = 15.40698467
ECCENTRICITY   = .00024167
INCLINATION    = 42.9993
RA_OF_ASC_NODE = 250.1735
ARG_OF_PERICENTER = 266.3217
MEAN_ANOMALY   = 216.4196

EPHEMERIS_TYPE = 0
CLASSIFICATION_TYPE = U
NORAD_CAT_ID   = 67175
ELEMENT_SET_NO = 999
REV_AT_EPOCH   = 577
BSTAR          = .2971186E-3
MEAN_MOTION_DOT = .12127E-3
MEAN_MOTION_DDOT = 0

CCSDS_OMM_VERS = 2.0
CREATION_DATE  = 
ORIGINATOR     = 

OBJECT_NAME    = STARLINK-35785
OBJECT_ID      = 2025-303P
CENTER_NAME    = EARTH
REF_FRAME      = TEME
TIME_SYSTEM    = UTC
MEAN_ELEMENT_THEORY = SGP/SGP4

EPOCH          = 2026-01-16T06:00:00.999648
MEAN_MOTION    = 15.40694366
ECCENTRICITY   = .00020208
INCLINATION    = 42.9992
RA_OF_ASC_NODE = 250.2040
ARG_OF_PERICENTER = 268.7407
MEAN_ANOMALY   = 201.5742

EPHEMERIS_TYPE = 0
CLASSIFICATION_TYPE = U
NORAD_CAT_ID   = 67176
ELEMENT_SET_NO = 999
REV_AT_EPOCH   = 572
BSTAR          = .30806785E-3
MEAN_MOTION_DOT = .12584E-3
MEAN_MOTION_DDOT = 0

CCSDS_OMM_VERS = 2.0
CREATION_DATE  = 
ORIGINATOR     = 

OBJECT_NAME    = STARLINK-35853
OBJECT_ID      = 2025-303Q
CENTER_NAME    = EARTH
REF_FRAME      = TEME
TIME_SYSTEM    = UTC
MEAN_ELEMENT_THEORY = SGP/SGP4

EPOCH          = 2026-01-16T06:00:00.999648
MEAN_MOTION    = 15.40700323
ECCENTRICITY   = .00016927
INCLINATION    = 42.9992
RA_OF_ASC_NODE = 250.1433
ARG_OF_PERICENTER = 259.2198
MEAN_ANOMALY   = 235.9619

EPHEMERIS_TYPE = 0
CLASSIFICATION_TYPE = U
NORAD_CAT_ID   = 67177
ELEMENT_SET_NO = 999
REV_AT_EPOCH   = 577
BSTAR          = .22622677E-3
MEAN_MOTION_DOT = .9158E-4
MEAN_MOTION_DDOT = 0

CCSDS_OMM_VERS = 2.0
CREATION_DATE  = 
ORIGINATOR     = 

OBJECT_NAME    = STARLINK-35878
OBJECT_ID      = 2025-303R
CENTER_NAME    = EARTH
REF_FRAME      = TEME
TIME_SYSTEM    = UTC
MEAN_ELEMENT_THEORY = SGP/SGP4

EPOCH          = 2026-01-16T06:00:00.999648
MEAN_MOTION    = 15.40700650
ECCENTRICITY   = .00015495
INCLINATION    = 42.9991
RA_OF_ASC_NODE = 250.0823
ARG_OF_PERICENTER = 263.0009
MEAN_ANOMALY   = 257.0668

EPHEMERIS_TYPE = 0
CLASSIFICATION_TYPE = U
NORAD_CAT_ID   = 67178
ELEMENT_SET_NO = 999
REV_AT_EPOCH   = 572
BSTAR          = .16992616E-3
MEAN_MOTION_DOT = .6801E-4
MEAN_MOTION_DDOT = 0

CCSDS_OMM_VERS = 2.0
CREATION_DATE  = 
ORIGINATOR     = 

OBJECT_NAME    = STARLINK-35793
OBJECT_ID      = 2025-303S
CENTER_NAME    = EARTH
REF_FRAME      = TEME
TIME_SYSTEM    = UTC
MEAN_ELEMENT_THEORY = SGP/SGP4

EPOCH          = 2026-01-16T06:00:00.999648
MEAN_MOTION    = 15.40702350
ECCENTRICITY   = .00015649
INCLINATION    = 42.9992
RA_OF_ASC_NODE = 250.1131
ARG_OF_PERICENTER = 253.8012
MEAN_ANOMALY   = 253.8193

EPHEMERIS_TYPE = 0
CLASSIFICATION_TYPE = U
NORAD_CAT_ID   = 67179
ELEMENT_SET_NO = 999
REV_AT_EPOCH   = 572
BSTAR          = .31409851E-3
MEAN_MOTION_DOT = .1284E-3
MEAN_MOTION_DDOT = 0

CCSDS_OMM_VERS = 2.0
CREATION_DATE  = 
ORIGINATOR     = 

OBJECT_NAME    = STARLINK-35876
OBJECT_ID      = 2025-303T
CENTER_NAME    = EARTH
REF_FRAME      = TEME
TIME_SYSTEM    = UTC
MEAN_ELEMENT_THEORY = SGP/SGP4

EPOCH          = 2026-01-16T06:00:00.999648
MEAN_MOTION    = 15.40728401
ECCENTRICITY   = .00024813
INCLINATION    = 42.9990
RA_OF_ASC_NODE = 250.0530
ARG_OF_PERICENTER = 284.9525
MEAN_ANOMALY   = 247.4459

EPHEMERIS_TYPE = 0
CLASSIFICATION_TYPE = U
NORAD_CAT_ID   = 67180
ELEMENT_SET_NO = 999
REV_AT_EPOCH   = 577
BSTAR          = .15143733E-3
MEAN_MOTION_DOT = .6033E-4
MEAN_MOTION_DDOT = 0

CCSDS_OMM_VERS = 2.0
CREATION_DATE  = 
ORIGINATOR     = 

OBJECT_NAME    = STARLINK-35766
OBJECT_ID      = 2025-303U
CENTER_NAME    = EARTH
REF_FRAME      = TEME
TIME_SYSTEM    = UTC
MEAN_ELEMENT_THEORY = SGP/SGP4

EPOCH          = 2026-01-16T06:00:00.999648
MEAN_MOTION    = 15.40632944
ECCENTRICITY   = .00020109
INCLINATION    = 42.9987
RA_OF_ASC_NODE = 250.0226
ARG_OF_PERICENTER = 247.1594
MEAN_ANOMALY   = 297.8178

EPHEMERIS_TYPE = 0
CLASSIFICATION_TYPE = U
NORAD_CAT_ID   = 67181
ELEMENT_SET_NO = 999
REV_AT_EPOCH   = 572
BSTAR          = .26175831E-3
MEAN_MOTION_DOT = .10622E-3
MEAN_MOTION_DDOT = 0

CCSDS_OMM_VERS = 2.0
CREATION_DATE  = 
ORIGINATOR     = 

OBJECT_NAME    = STARLINK-35782
OBJECT_ID      = 2025-303V
CENTER_NAME    = EARTH
REF_FRAME      = TEME
TIME_SYSTEM    = UTC
MEAN_ELEMENT_THEORY = SGP/SGP4

EPOCH          = 2026-01-16T06:00:00.999648
MEAN_MOTION    = 15.40700234
ECCENTRICITY   = .00019153
INCLINATION    = 42.9988
RA_OF_ASC_NODE = 249.9915
ARG_OF_PERICENTER = 268.5093
MEAN_ANOMALY   = 288.8767

EPHEMERIS_TYPE = 0
CLASSIFICATION_TYPE = U
NORAD_CAT_ID   = 67182
ELEMENT_SET_NO = 999
REV_AT_EPOCH   = 572
BSTAR          = .11772393E-3
MEAN_MOTION_DOT = .4617E-4
MEAN_MOTION_DDOT = 0

CCSDS_OMM_VERS = 2.0
CREATION_DATE  = 
ORIGINATOR     = 

OBJECT_NAME    = STARLINK-35719
OBJECT_ID      = 2025-303W
CENTER_NAME    = EARTH
REF_FRAME      = TEME
TIME_SYSTEM    = UTC
MEAN_ELEMENT_THEORY = SGP/SGP4

EPOCH          = 2026-01-16T06:00:00.999648
MEAN_MOTION    = 15.40677703
ECCENTRICITY   = .00015123
INCLINATION    = 42.9990
RA_OF_ASC_NODE = 249.9324
ARG_OF_PERICENTER = 249.5595
MEAN_ANOMALY   = 332.7164

EPHEMERIS_TYPE = 0
CLASSIFICATION_TYPE = U
NORAD_CAT_ID   = 67183
ELEMENT_SET_NO = 999
REV_AT_EPOCH   = 572
BSTAR          = .40012187E-3
MEAN_MOTION_DOT = .16434E-3
MEAN_MOTION_DDOT = 0

