STARLINK-35762          
1 67172U 25303K   26016.25001157  .00015872  00000+0  38653-3 0  9992
2 67172  42.9989 250.3245 0001665 261.9014 158.6457 15.40692832  5728
STARLINK-36183          
1 67173U 25303L   26016.25001157  .00015301  00000+0  37288-3 0  9993
2 67173  42.9990 250.2639 0001723 265.6944 179.7288 15.40694684  6011
STARLINK-36210          
1 67174U 25303M   26016.25001157  .00013334  00000+0  32625-3 0  9998
2 67174  42.9992 250.2335 0001609 275.8052 182.0145 15.40667739  6013
STARLINK-35756          
1 67175U 25303N   26016.25001157  .00012127  00000+0  29712-3 0  9991
2 67175  42.9993 250.1735 0002416 266.3217 216.4196 15.40698467  5775
STARLINK-35785          
1 67176U 25303P   26016.25001157  .00012584  00000+0  30807-3 0  9996
2 67176  42.9992 250.2040 0002020 268.7407 201.5742 15.40694366  5724
STARLINK-35853          
1 67177U 25303Q   26016.25001157  .00009158  00000+0  22623-3 0  9997
2 67177  42.9992 250.1433 0001692 259.2198 235.9619 15.40700323  5776
STARLINK-35878          
1 67178U 25303R   26016.25001157  .00006801  00000+0  16993-3 0  9993
2 67178  42.9991 250.0823 0001549 263.0009 257.0668 15.40700650  5720
STARLINK-35793          
1 67179U 25303S   26016.25001157  .00012840  00000+0  31410-3 0  9995
2 67179  42.9992 250.1131 0001564 253.8012 253.8193 15.40702350  5729
STARLINK-35876          
1 67180U 25303T   26016.25001157  .00006033  00000+0  15144-3 0  9990
2 67180  42.9990 250.0530 0002481 284.9525 247.4459 15.40728401  5778
STARLINK-35766          
1 67181U 25303U   26016.25001157  .00010622  00000+0  26176-3 0  9997
2 67181  42.9987 250.0226 0002010 247.1594 297.8178 15.40632944  5720
STARLINK-35782          
1 67182U 25303V   26016.25001157  .00004617  00000+0  11772-3 0  9991
2 67182  42.9988 249.9915 0001915 268.5093 288.8767 15.40700234  5720
STARLINK-35719          
1 67183U 25303W   26016.25001157  .00016434  00000+0  40012-3 0  9991
2 67183  42.9990 249.9324 0001512 249.5595 332.7164 15.40677703  5721
